{
  "norad_id": 41879,
  "name": "WGS F8 (USA 272)",
  "history": [
    {
      "epoch": "2026-04-16T18:07:44.551200Z",
      "apogee_km": 35791.55786008673,
      "perigee_km": 35782.846501012034,
      "latitude_deg": 0.016617170787214378,
      "longitude_deg": 149.7886685231976,
      "height_km": 35787.805199972056,
      "semi_major_axis_km": 42165.33918054939,
      "eccentricity": 0.0001033,
      "inclination_deg": 0.0138,
      "raan_deg": 251.2705,
      "arg_perigee_deg": 270.2118,
      "mean_anomaly_deg": 105.1376,
      "mean_motion_rev_day": 1.00269619
    },
    {
      "epoch": "2026-04-17T18:05:13.856640Z",
      "apogee_km": 35790.8680672133,
      "perigee_km": 35783.08101441394,
      "latitude_deg": 0.014218120911011371,
      "longitude_deg": 149.78600949257074,
      "height_km": 35787.541101918876,
      "semi_major_axis_km": 42165.111540813625,
      "eccentricity": 9.234e-05,
      "inclination_deg": 0.0137,
      "raan_deg": 254.4454,
      "arg_perigee_deg": 266.1328,
      "mean_anomaly_deg": 106.3967,
      "mean_motion_rev_day": 1.00270431
    },
    {
      "epoch": "2026-04-18T05:37:38.698752Z",
      "apogee_km": 35790.455416121586,
      "perigee_km": 35783.16846964528,
      "latitude_deg": -0.009318062386035181,
      "longitude_deg": 149.76615223287726,
      "height_km": 35785.71399251672,
      "semi_major_axis_km": 42164.948942883435,
      "eccentricity": 8.641e-05,
      "inclination_deg": 0.0127,
      "raan_deg": 254.2709,
      "arg_perigee_deg": 266.6372,
      "mean_anomaly_deg": 279.644,
      "mean_motion_rev_day": 1.00271011
    },
    {
      "epoch": "2026-04-19T16:35:38.451264Z",
      "apogee_km": 35789.94504248461,
      "perigee_km": 35783.49381945066,
      "latitude_deg": -0.004613895367973178,
      "longitude_deg": 149.78676492843752,
      "height_km": 35786.17939359298,
      "semi_major_axis_km": 42164.85643096764,
      "eccentricity": 7.65e-05,
      "inclination_deg": 0.0149,
      "raan_deg": 260.8418,
      "arg_perigee_deg": 255.9153,
      "mean_anomaly_deg": 89.7293,
      "mean_motion_rev_day": 1.00271341
    },
    {
      "epoch": "2026-04-20T07:59:38.575968Z",
      "apogee_km": 35789.793888832704,
      "perigee_km": 35783.69263065912,
      "latitude_deg": -0.025025273194421372,
      "longitude_deg": 149.77418933524297,
      "height_km": 35783.88838416587,
      "semi_major_axis_km": 42164.880259745914,
      "eccentricity": 7.235e-05,
      "inclination_deg": 0.0136,
      "raan_deg": 258.6295,
      "arg_perigee_deg": 258.7574,
      "mean_anomaly_deg": 320.7319,
      "mean_motion_rev_day": 1.00271256
    },
    {
      "epoch": "2026-04-21T08:41:38.571936Z",
      "apogee_km": 35790.60799655888,
      "perigee_km": 35783.273802909,
      "latitude_deg": -0.026103774595583534,
      "longitude_deg": 149.77649759466482,
      "height_km": 35783.03230123763,
      "semi_major_axis_km": 42165.077899733944,
      "eccentricity": 8.697e-05,
      "inclination_deg": 0.0128,
      "raan_deg": 262.3742,
      "arg_perigee_deg": 248.5617,
      "mean_anomaly_deg": 338.6942,
      "mean_motion_rev_day": 1.00270551
    },
    {
      "epoch": "2026-04-22T12:45:38.922336Z",
      "apogee_km": 35788.7598623698,
      "perigee_km": 35784.09646146289,
      "latitude_deg": -0.029325881125087657,
      "longitude_deg": 149.79413994120216,
      "height_km": 35783.92505316366,
      "semi_major_axis_km": 42164.56516191635,
      "eccentricity": 5.53e-05,
      "inclination_deg": 0.0142,
      "raan_deg": 267.4404,
      "arg_perigee_deg": 253.1783,
      "mean_anomaly_deg": 31.172,
      "mean_motion_rev_day": 1.0027238
    },
    {
      "epoch": "2026-04-23T12:15:38.579616Z",
      "apogee_km": 35789.19714227409,
      "perigee_km": 35784.05725751813,
      "latitude_deg": -0.027702737394723717,
      "longitude_deg": 149.79795733937533,
      "height_km": 35783.92879748049,
      "semi_major_axis_km": 42164.76419989611,
      "eccentricity": 6.095e-05,
      "inclination_deg": 0.0128,
      "raan_deg": 269.8563,
      "arg_perigee_deg": 243.9376,
      "mean_anomaly_deg": 31.4611,
      "mean_motion_rev_day": 1.0027167
    },
    {
      "epoch": "2026-04-24T20:21:18.876960Z",
      "apogee_km": 35788.56479461415,
      "perigee_km": 35784.491687951835,
      "latitude_deg": 0.02006492495433146,
      "longitude_deg": 149.8033609254817,
      "height_km": 35787.79854688837,
      "semi_major_axis_km": 42164.66524128299,
      "eccentricity": 4.83e-05,
      "inclination_deg": 0.013,
      "raan_deg": 276.248,
      "arg_perigee_deg": 240.3376,
      "mean_anomaly_deg": 151.4098,
      "mean_motion_rev_day": 1.00272023
    },
    {
      "epoch": "2026-04-25T05:26:38.601024Z",
      "apogee_km": 35788.266060103684,
      "perigee_km": 35783.89784702009,
      "latitude_deg": -0.0023535289371833723,
      "longitude_deg": 149.79983572411558,
      "height_km": 35784.171573553496,
      "semi_major_axis_km": 42164.21895356189,
      "eccentricity": 5.18e-05,
      "inclination_deg": 0.0136,
      "raan_deg": 275.3956,
      "arg_perigee_deg": 219.1331,
      "mean_anomaly_deg": 310.1757,
      "mean_motion_rev_day": 1.00273615
    },
    {
      "epoch": "2026-04-26T19:35:38.596416Z",
      "apogee_km": 35788.3156905493,
      "perigee_km": 35784.464382649785,
      "latitude_deg": 0.016888345113931995,
      "longitude_deg": 149.80692196963165,
      "height_km": 35787.67284359875,
      "semi_major_axis_km": 42164.527036599546,
      "eccentricity": 4.567e-05,
      "inclination_deg": 0.0134,
      "raan_deg": 281.4185,
      "arg_perigee_deg": 217.6873,
      "mean_anomaly_deg": 159.4177,
      "mean_motion_rev_day": 1.00272516
    },
    {
      "epoch": "2026-04-27T19:26:38.649120Z",
      "apogee_km": 35787.702854214636,
      "perigee_km": 35785.21514305072,
      "latitude_deg": 0.015587747587061138,
      "longitude_deg": 149.8092689187135,
      "height_km": 35787.01206570887,
      "semi_major_axis_km": 42164.595998632685,
      "eccentricity": 2.95e-05,
      "inclination_deg": 0.0137,
      "raan_deg": 285.7688,
      "arg_perigee_deg": 222.1378,
      "mean_anomaly_deg": 149.3513,
      "mean_motion_rev_day": 1.0027227
    },
    {
      "epoch": "2026-04-28T14:56:38.776128Z",
      "apogee_km": 35787.06830653671,
      "perigee_km": 35785.51665553181,
      "latitude_deg": -0.017715704243133984,
      "longitude_deg": 149.8127667840843,
      "height_km": 35785.95319218879,
      "semi_major_axis_km": 42164.42948103426,
      "eccentricity": 1.84e-05,
      "inclination_deg": 0.013,
      "raan_deg": 289.497,
      "arg_perigee_deg": 198.4521,
      "mean_anomaly_deg": 102.6155,
      "mean_motion_rev_day": 1.00272864
    },
    {
      "epoch": "2026-04-29T19:17:09.100320Z",
      "apogee_km": 35787.225261550804,
      "perigee_km": 35785.698903064025,
      "latitude_deg": 0.01181490928064621,
      "longitude_deg": 149.81217878649377,
      "height_km": 35786.681971029786,
      "semi_major_axis_km": 42164.59908230742,
      "eccentricity": 1.81e-05,
      "inclination_deg": 0.0132,
      "raan_deg": 295.224,
      "arg_perigee_deg": 197.2385,
      "mean_anomaly_deg": 164.3965,
      "mean_motion_rev_day": 1.00272259
    },
    {
      "epoch": "2026-04-30T08:58:32.716992Z",
      "apogee_km": 35787.190700230734,
      "perigee_km": 35785.72337235828,
      "latitude_deg": -0.020797125275549805,
      "longitude_deg": 149.81195947782265,
      "height_km": 35785.23219086974,
      "semi_major_axis_km": 42164.59403629451,
      "eccentricity": 1.74e-05,
      "inclination_deg": 0.0123,
      "raan_deg": 299.6551,
      "arg_perigee_deg": 192.7314,
      "mean_anomaly_deg": 10.3845,
      "mean_motion_rev_day": 1.00272277
    },
    {
      "epoch": "2026-05-01T20:49:38.771040Z",
      "apogee_km": 35787.20751283428,
      "perigee_km": 35786.16182525689,
      "latitude_deg": 0.020786665134236527,
      "longitude_deg": 149.81157646826819,
      "height_km": 35786.6562978366,
      "semi_major_axis_km": 42164.82166904559,
      "eccentricity": 1.24e-05,
      "inclination_deg": 0.0132,
      "raan_deg": 299.7863,
      "arg_perigee_deg": 223.8973,
      "mean_anomaly_deg": 158.3374,
      "mean_motion_rev_day": 1.00271465
    },
    {
      "epoch": "2026-05-03T19:07:38.698752Z",
      "apogee_km": 35787.35404123155,
      "perigee_km": 35786.375813186845,
      "latitude_deg": 0.0052025718691516,
      "longitude_deg": 149.81192691253517,
      "height_km": 35786.48491618689,
      "semi_major_axis_km": 42165.0019272092,
      "eccentricity": 1.16e-05,
      "inclination_deg": 0.0136,
      "raan_deg": 302.8883,
      "arg_perigee_deg": 249.8542,
      "mean_anomaly_deg": 105.6812,
      "mean_motion_rev_day": 1.00270822
    },
    {
      "epoch": "2026-05-04T11:54:38.611008Z",
      "apogee_km": 35786.81573830067,
      "perigee_km": 35786.18579861241,
      "latitude_deg": -0.03334300386713413,
      "longitude_deg": 149.81108121979122,
      "height_km": 35785.880858709956,
      "semi_major_axis_km": 42164.637768456545,
      "eccentricity": 7.47e-06,
      "inclination_deg": 0.0139,
      "raan_deg": 303.6852,
      "arg_perigee_deg": 316.1224,
      "mean_anomaly_deg": 291.0565,
      "mean_motion_rev_day": 1.00272121
    },
    {
      "epoch": "2026-05-05T15:16:36.675840Z",
      "apogee_km": 35787.06769448145,
      "perigee_km": 35786.38462369827,
      "latitude_deg": -0.025632745881615574,
      "longitude_deg": 149.81123807428398,
      "height_km": 35785.88043918355,
      "semi_major_axis_km": 42164.86315908986,
      "eccentricity": 8.1e-06,
      "inclination_deg": 0.0136,
      "raan_deg": 304.2853,
      "arg_perigee_deg": 306.1634,
      "mean_anomaly_deg": 352.0309,
      "mean_motion_rev_day": 1.00271317
    }
  ]
}